STARLINK-30932          
1 58523U 23191R   26068.42355886  .00117798  00000+0  42662-2 0  9996
2 58523  42.9994 104.6731 0000931 208.9228 151.1572 15.27240316125380
LIZZIESAT-2 (LS-2)      
1 62383U 24247G   26068.49140277  .00009388  00000+0  34517-3 0  9997
2 62383  44.9909 117.0823 0004092 327.5136  32.5495 15.28222796 67716
